KUIPER-00157            
1 65970U 25228Z   25309.94134074  .00017483  00000+0  52328-3 0  9992
2 65970  51.8804 197.9194 0005619 232.6729 127.3745 15.34608188  4767
